{"type": "FeatureCollection", "features": [ {"type": "Feature", "properties": {"norad_id": 32060, "name": "WORLDVIEW-1 (WV-1)", "group": "resource", "lat": -4.221202672539731, "lon": 93.36059821310785, "alt_km": 496.27036166186826, "timestamp": "2025-12-01T03:58:49.207001+00:00", "meta": {"OBJECT_NAME": "WORLDVIEW-1 (WV-1)", "OBJECT_ID": "2007-041A", "EPOCH": "2025-11-30T18:32:47.273568", "MEAN_MOTION": 15.24381946, "ECCENTRICITY": 7.53e-05, "INCLINATION": 97.383, "RA_OF_ASC_NODE": 92.425, "ARG_OF_PERICENTER": 89.3995, "MEAN_ANOMALY": 270.7329, "EPHEMERIS_TYPE": 0, "CLASSIFICATION_TYPE": "U", "NORAD_CAT_ID": 32060, "ELEMENT_SET_NO": 999, "REV_AT_EPOCH": 1265, "BSTAR": 0.00036967, "MEAN_MOTION_DOT": 8.989e-05, "MEAN_MOTION_DDOT": 0, "GROUP": "resource"}, "tle": {"line1": "1 32060U 07041A   25334.77276937  .00008989  00000+0  36967-3 0  9995", "line2": "2 32060  97.3830  92.4250 0000753  89.3995 270.7329 15.24381946 12650"}}, "geometry": {"type": "Point", "coordinates": [93.36059821310785, -4.221202672539731]}}, {"type": "Feature", "properties": {"norad_id": 32289, "name": "YAOGAN-3", "group": "resource", "lat": -12.445596498238107, "lon": -179.84631176612498, "alt_km": 603.6386476506168, "timestamp": "2025-12-01T03:58:49.207012+00:00", "meta": {"OBJECT_NAME": "YAOGAN-3", "OBJECT_ID": "2007-055A", "EPOCH": "2025-11-30T20:40:16.999968", "MEAN_MOTION": 14.89765644, "ECCENTRICITY": 0.0001557, "INCLINATION": 97.8383, "RA_OF_ASC_NODE": 1.5941, "ARG_OF_PERICENTER": 77.6474, "MEAN_ANOMALY": 282.4917, "EPHEMERIS_TYPE": 0, "CLASSIFICATION_TYPE": "U", "NORAD_CAT_ID": 32289, "ELEMENT_SET_NO": 999, "REV_AT_EPOCH": 97632, "BSTAR": 0.00023291, "MEAN_MOTION_DOT": 2.177e-05, "MEAN_MOTION_DDOT": 0, "GROUP": "resource"}, "tle": {"line1": "1 32289U 07055A   25334.86130787  .00002177  00000+0  23291-3 0  9994", "line2": "2 32289  97.8383   1.5941 0001557  77.6474 282.4917 14.89765644976321"}}, "geometry": {"type": "Point", "coordinates": [-179.84631176612498, -12.445596498238107]}}, {"type": "Feature", "properties": {"norad_id": 32376, "name": "COSMO-SKYMED 2", "group": "resource", "lat": 68.5323133799528, "lon": 136.04052879410253, "alt_km": 614.8206252856799, "timestamp": "2025-12-01T03:58:49.207022+00:00", "meta": {"OBJECT_NAME": "COSMO-SKYMED 2", "OBJECT_ID": "2007-059A", "EPOCH": "2025-11-30T19:33:52.848000", "MEAN_MOTION": 14.82169931, "ECCENTRICITY": 0.0001481, "INCLINATION": 97.8807, "RA_OF_ASC_NODE": 156.3181, "ARG_OF_PERICENTER": 85.7554, "MEAN_ANOMALY": 274.3828, "EPHEMERIS_TYPE": 0, "CLASSIFICATION_TYPE": "U", "NORAD_CAT_ID": 32376, "ELEMENT_SET_NO": 999, "REV_AT_EPOCH": 97261, "BSTAR": 8.445e-05, "MEAN_MOTION_DOT": 6.2e-06, "MEAN_MOTION_DDOT": 0, "GROUP": "resource"}, "tle": {"line1": "1 32376U 07059A   25334.81519500  .00000620  00000+0  84450-4 0  9990", "line2": "2 32376  97.8807 156.3181 0001481  85.7554 274.3828 14.82169931972618"}}, "geometry": {"type": "Point", "coordinates": [136.04052879410253, 68.5323133799528]}}, {"type": "Feature", "properties": {"norad_id": 32382, "name": "RADARSAT-2", "group": "resource", "lat": 28.645252113058625, "lon": -24.806459504552357, "alt_km": 790.0474011833039, "timestamp": "2025-12-01T03:58:49.207032+00:00", "meta": {"OBJECT_NAME": "RADARSAT-2", "OBJECT_ID": "2007-061A", "EPOCH": "2025-11-30T21:07:40.630368", "MEAN_MOTION": 14.29982546, "ECCENTRICITY": 0.0001081, "INCLINATION": 98.58, "RA_OF_ASC_NODE": 339.6427, "ARG_OF_PERICENTER": 90.3436, "MEAN_ANOMALY": 269.787, "EPHEMERIS_TYPE": 0, "CLASSIFICATION_TYPE": "U", "NORAD_CAT_ID": 32382, "ELEMENT_SET_NO": 999, "REV_AT_EPOCH": 93761, "BSTAR": 5.4581e-05, "MEAN_MOTION_DOT": 9.7e-07, "MEAN_MOTION_DDOT": 0, "GROUP": "resource"}, "tle": {"line1": "1 32382U 07061A   25334.88033137  .00000097  00000+0  54581-4 0  9994", "line2": "2 32382  98.5800 339.6427 0001081  90.3436 269.7870 14.29982546937614"}}, "geometry": {"type": "Point", "coordinates": [-24.806459504552357, 28.645252113058625]}}, {"type": "Feature", "properties": {"norad_id": 32783, "name": "CARTOSAT-2A", "group": "resource", "lat": -15.60763500938461, "lon": 27.543189755889696, "alt_km": 632.6655652227664, "timestamp": "2025-12-01T03:58:49.207044+00:00", "meta": {"OBJECT_NAME": "CARTOSAT-2A", "OBJECT_ID": "2008-021A", "EPOCH": "2025-11-30T19:55:55.970688", "MEAN_MOTION": 14.78899733, "ECCENTRICITY": 0.001265, "INCLINATION": 97.7947, "RA_OF_ASC_NODE": 25.0253, "ARG_OF_PERICENTER": 41.6638, "MEAN_ANOMALY": 318.5535, "EPHEMERIS_TYPE": 0, "CLASSIFICATION_TYPE": "U", "NORAD_CAT_ID": 32783, "ELEMENT_SET_NO": 999, "REV_AT_EPOCH": 94948, "BSTAR": 0.00013628, "MEAN_MOTION_DOT": 9.55e-06, "MEAN_MOTION_DDOT": 0, "GROUP": "resource"}, "tle": {"line1": "1 32783U 08021A   25334.83050892  .00000955  00000+0  13628-3 0  9997", "line2": "2 32783  97.7947  25.0253 0012650  41.6638 318.5535 14.78899733949480"}}, "geometry": {"type": "Point", "coordinates": [27.543189755889696, -15.60763500938461]}}, {"type": "Feature", "properties": {"norad_id": 33331, "name": "GEOEYE 1", "group": "resource", "lat": -73.60850108652627, "lon": 75.6529562165736, "alt_km": 683.444164964093, "timestamp": "2025-12-01T03:58:49.207058+00:00", "meta": {"OBJECT_NAME": "GEOEYE 1", "OBJECT_ID": "2008-042A", "EPOCH": "2025-11-30T18:29:19.332960", "MEAN_MOTION": 14.64785342, "ECCENTRICITY": 0.0003111, "INCLINATION": 98.1266, "RA_OF_ASC_NODE": 46.1999, "ARG_OF_PERICENTER": 327.8123, "MEAN_ANOMALY": 32.289, "EPHEMERIS_TYPE": 0, "CLASSIFICATION_TYPE": "U", "NORAD_CAT_ID": 33331, "ELEMENT_SET_NO": 999, "REV_AT_EPOCH": 92110, "BSTAR": 0.00012886, "MEAN_MOTION_DOT": 6.4e-06, "MEAN_MOTION_DDOT": 0, "GROUP": "resource"}, "tle": {"line1": "1 33331U 08042A   25334.77036265  .00000640  00000+0  12886-3 0  9997", "line2": "2 33331  98.1266  46.1999 0003111 327.8123  32.2890 14.64785342921108"}}, "geometry": {"type": "Point", "coordinates": [75.6529562165736, -73.60850108652627]}}, {"type": "Feature", "properties": {"norad_id": 33396, "name": "THEOS", "group": "resource", "lat": -20.72780653128079, "lon": -149.68262587016548, "alt_km": 830.3846859160094, "timestamp": "2025-12-01T03:58:49.207068+00:00", "meta": {"OBJECT_NAME": "THEOS", "OBJECT_ID": "2008-049A", "EPOCH": "2025-11-30T20:16:24.871584", "MEAN_MOTION": 14.20092211, "ECCENTRICITY": 0.0001088, "INCLINATION": 98.5887, "RA_OF_ASC_NODE": 33.2843, "ARG_OF_PERICENTER": 100.0404, "MEAN_ANOMALY": 260.0896, "EPHEMERIS_TYPE": 0, "CLASSIFICATION_TYPE": "U", "NORAD_CAT_ID": 33396, "ELEMENT_SET_NO": 999, "REV_AT_EPOCH": 88981, "BSTAR": 4.9171e-05, "MEAN_MOTION_DOT": 6.2e-07, "MEAN_MOTION_DDOT": 0, "GROUP": "resource"}, "tle": {"line1": "1 33396U 08049A   25334.84473231  .00000062  00000+0  49171-4 0  9997", "line2": "2 33396  98.5887  33.2843 0001088 100.0404 260.0896 14.20092211889817"}}, "geometry": {"type": "Point", "coordinates": [-149.68262587016548, -20.72780653128079]}}, {"type": "Feature", "properties": {"norad_id": 33412, "name": "COSMO-SKYMED 3", "group": "resource", "lat": -14.836380925785047, "lon": -172.54255058970014, "alt_km": 562.817920095602, "timestamp": "2025-12-01T03:58:49.207079+00:00", "meta": {"OBJECT_NAME": "COSMO-SKYMED 3", "OBJECT_ID": "2008-054A", "EPOCH": "2025-11-30T20:04:09.979968", "MEAN_MOTION": 15.05180555, "ECCENTRICITY": 0.0015136, "INCLINATION": 97.8482, "RA_OF_ASC_NODE": 185.0285, "ARG_OF_PERICENTER": 213.5163, "MEAN_ANOMALY": 146.5107, "EPHEMERIS_TYPE": 0, "CLASSIFICATION_TYPE": "U", "NORAD_CAT_ID": 33412, "ELEMENT_SET_NO": 999, "REV_AT_EPOCH": 92708, "BSTAR": 0.00031572, "MEAN_MOTION_DOT": 4.448e-05, "MEAN_MOTION_DDOT": 0, "GROUP": "resource"}, "tle": {"line1": "1 33412U 08054A   25334.83622662  .00004448  00000+0  31572-3 0  9992", "line2": "2 33412  97.8482 185.0285 0015136 213.5163 146.5107 15.05180555927084"}}, "geometry": {"type": "Point", "coordinates": [-172.54255058970014, -14.836380925785047]}}, {"type": "Feature", "properties": {"norad_id": 33492, "name": "GOSAT (IBUKI)", "group": "resource", "lat": 31.92147940527455, "lon": -90.99452505475203, "alt_km": 666.7911335855688, "timestamp": "2025-12-01T03:58:49.207112+00:00", "meta": {"OBJECT_NAME": "GOSAT (IBUKI)", "OBJECT_ID": "2009-002A", "EPOCH": "2025-11-30T17:29:30.340032", "MEAN_MOTION": 14.67542719, "ECCENTRICITY": 9.93e-05, "INCLINATION": 98.0766, "RA_OF_ASC_NODE": 83.4996, "ARG_OF_PERICENTER": 84.4796, "MEAN_ANOMALY": 275.6522, "EPHEMERIS_TYPE": 0, "CLASSIFICATION_TYPE": "U", "NORAD_CAT_ID": 33492, "ELEMENT_SET_NO": 999, "REV_AT_EPOCH": 90235, "BSTAR": 0.00017615, "MEAN_MOTION_DOT": 9.51e-06, "MEAN_MOTION_DDOT": 0, "GROUP": "resource"}, "tle": {"line1": "1 33492U 09002A   25334.72882338  .00000951  00000+0  17615-3 0  9997", "line2": "2 33492  98.0766  83.4996 0000993  84.4796 275.6522 14.67542719902351"}}, "geometry": {"type": "Point", "coordinates": [-90.99452505475203, 31.92147940527455]}}, {"type": "Feature", "properties": {"norad_id": 35682, "name": "DUBAISAT-1", "group": "resource", "lat": -47.157195098302616, "lon": -82.68124437266538, "alt_km": 657.6729552258103, "timestamp": "2025-12-01T03:58:49.207134+00:00", "meta": {"OBJECT_NAME": "DUBAISAT-1", "OBJECT_ID": "2009-041B", "EPOCH": "2025-11-30T20:26:09.630240", "MEAN_MOTION": 14.74548855, "ECCENTRICITY": 0.0010313, "INCLINATION": 97.9786, "RA_OF_ASC_NODE": 105.7076, "ARG_OF_PERICENTER": 354.8916, "MEAN_ANOMALY": 5.2185, "EPHEMERIS_TYPE": 0, "CLASSIFICATION_TYPE": "U", "NORAD_CAT_ID": 35682, "ELEMENT_SET_NO": 999, "REV_AT_EPOCH": 87586, "BSTAR": 0.00020108, "MEAN_MOTION_DOT": 1.289e-05, "MEAN_MOTION_DDOT": 0, "GROUP": "resource"}, "tle": {"line1": "1 35682U 09041B   25334.85150035  .00001289  00000+0  20108-3 0  9995", "line2": "2 35682  97.9786 105.7076 0010313 354.8916   5.2185 14.74548855875868"}}, "geometry": {"type": "Point", "coordinates": [-82.68124437266538, -47.157195098302616]}}]}